{
  "type": "FeatureCollection",
  "features": [
    {
      "type": "Feature",
      "properties": {
        "norad_id": 40118,
        "name": "GAOFEN-2",
        "group": "resource",
        "lat": 42.448617372787716,
        "lon": 52.36954939570295,
        "alt_km": 618.6718319677839,
        "timestamp": "2025-12-26T14:28:47.346243+00:00",
        "meta_object_name": "GAOFEN-2",
        "meta_object_id": "2014-049A",
        "meta_epoch": "2025-12-26T06:10:37.263072",
        "meta_mean_motion": 14.80630574,
        "meta_eccentricity": 0.00087058,
        "meta_inclination": 98.0362,
        "meta_ra_of_asc_node": 59.448,
        "meta_arg_of_pericenter": 75.7085,
        "meta_mean_anomaly": 284.5093,
        "meta_ephemeris_type": 0,
        "meta_classification_type": "U",
        "meta_norad_cat_id": 40118,
        "meta_element_set_no": 999,
        "meta_rev_at_epoch": 61364,
        "meta_bstar": 0.00011577495,
        "meta_mean_motion_dot": 8.36e-06,
        "meta_mean_motion_ddot": 0,
        "tle_line1": "1 40118U 14049A   25360.25737573  .00000836  00000+0  11577-3 0  9997",
        "tle_line2": "2 40118  98.0362  59.4480 0008705  75.7085 284.5093 14.80630574613645"
      },
      "geometry": {
        "type": "Point",
        "coordinates": [
          52.36954939570295,
          42.448617372787716
        ]
      }
    },
    {
      "type": "Feature",
      "properties": {
        "norad_id": 40143,
        "name": "YAOGAN-21",
        "group": "resource",
        "lat": -5.352243580421902,
        "lon": 43.989206769514645,
        "alt_km": 492.34187540537096,
        "timestamp": "2025-12-26T14:28:47.346254+00:00",
        "meta_object_name": "YAOGAN-21",
        "meta_object_id": "2014-053A",
        "meta_epoch": "2025-12-26T06:37:24.022272",
        "meta_mean_motion": 15.23810869,
        "meta_eccentricity": 0.00084031,
        "meta_inclination": 97.1735,
        "meta_ra_of_asc_node": 43,
        "meta_arg_of_pericenter": 356.5749,
        "meta_mean_anomaly": 3.543,
        "meta_ephemeris_type": 0,
        "meta_classification_type": "U",
        "meta_norad_cat_id": 40143,
        "meta_element_set_no": 999,
        "meta_rev_at_epoch": 62860,
        "meta_bstar": 0.0002682491,
        "meta_mean_motion_dot": 6.4e-05,
        "meta_mean_motion_ddot": 0,
        "tle_line1": "1 40143U 14053A   25360.27597248  .00006400  00000+0  26825-3 0  9990",
        "tle_line2": "2 40143  97.1735  43.0000 0008403 356.5749   3.5430 15.23810869628607"
      },
      "geometry": {
        "type": "Point",
        "coordinates": [
          43.989206769514645,
          -5.352243580421902
        ]
      }
    },
    {
      "type": "Feature",
      "properties": {
        "norad_id": 40275,
        "name": "YAOGAN-22",
        "group": "resource",
        "lat": -71.9782261402942,
        "lon": -71.4788332366766,
        "alt_km": 1205.5300543705152,
        "timestamp": "2025-12-26T14:28:47.346265+00:00",
        "meta_object_name": "YAOGAN-22",
        "meta_object_id": "2014-063A",
        "meta_epoch": "2025-12-26T05:53:04.068672",
        "meta_mean_motion": 13.15523273,
        "meta_eccentricity": 0.00061072,
        "meta_inclination": 100.743,
        "meta_ra_of_asc_node": 143.8558,
        "meta_arg_of_pericenter": 215.9318,
        "meta_mean_anomaly": 144.1383,
        "meta_ephemeris_type": 0,
        "meta_classification_type": "U",
        "meta_norad_cat_id": 40275,
        "meta_element_set_no": 999,
        "meta_rev_at_epoch": 53707,
        "meta_bstar": 4.6164242e-05,
        "meta_mean_motion_dot": -2.9e-07,
        "meta_mean_motion_ddot": 0,
        "tle_line1": "1 40275U 14063A   25360.24518598 -.00000029  00000+0  46164-4 0  9996",
        "tle_line2": "2 40275 100.7430 143.8558 0006107 215.9318 144.1383 13.15523273537070"
      },
      "geometry": {
        "type": "Point",
        "coordinates": [
          -71.4788332366766,
          -71.9782261402942
        ]
      }
    },
    {
      "type": "Feature",
      "properties": {
        "norad_id": 40298,
        "name": "ASNARO",
        "group": "resource",
        "lat": -18.0081067218979,
        "lon": -106.19782280764066,
        "alt_km": 513.1314702597056,
        "timestamp": "2025-12-26T14:28:47.346275+00:00",
        "meta_object_name": "ASNARO",
        "meta_object_id": "2014-070A",
        "meta_epoch": "2025-12-26T07:17:27.208896",
        "meta_mean_motion": 15.19778239,
        "meta_eccentricity": 0.00056915,
        "meta_inclination": 97.3629,
        "meta_ra_of_asc_node": 75.9191,
        "meta_arg_of_pericenter": 85.7332,
        "meta_mean_anomaly": 274.4553,
        "meta_ephemeris_type": 0,
        "meta_classification_type": "U",
        "meta_norad_cat_id": 40298,
        "meta_element_set_no": 999,
        "meta_rev_at_epoch": 61775,
        "meta_bstar": 0.00077526041,
        "meta_mean_motion_dot": 0.00016555,
        "meta_mean_motion_ddot": 0,
        "tle_line1": "1 40298U 14070A   25360.30378714  .00016555  00000+0  77526-3 0  9995",
        "tle_line2": "2 40298  97.3629  75.9191 0005691  85.7332 274.4553 15.19778239617750"
      },
      "geometry": {
        "type": "Point",
        "coordinates": [
          -106.19782280764066,
          -18.0081067218979
        ]
      }
    },
    {
      "type": "Feature",
      "properties": {
        "norad_id": 40310,
        "name": "YAOGAN-24",
        "group": "resource",
        "lat": 13.423574029487108,
        "lon": -46.27521013790186,
        "alt_km": 638.7135375016815,
        "timestamp": "2025-12-26T14:28:47.346285+00:00",
        "meta_object_name": "YAOGAN-24",
        "meta_object_id": "2014-072A",
        "meta_epoch": "2025-12-26T07:13:23.552256",
        "meta_mean_motion": 14.7620362,
        "meta_eccentricity": 0.00152093,
        "meta_inclination": 98.1233,
        "meta_ra_of_asc_node": 131.4673,
        "meta_arg_of_pericenter": 97.6101,
        "meta_mean_anomaly": 262.6836,
        "meta_ephemeris_type": 0,
        "meta_classification_type": "U",
        "meta_norad_cat_id": 40310,
        "meta_element_set_no": 999,
        "meta_rev_at_epoch": 59821,
        "meta_bstar": 0.00011483533,
        "meta_mean_motion_dot": 7.43e-06,
        "meta_mean_motion_ddot": 0,
        "tle_line1": "1 40310U 14072A   25360.30096704  .00000743  00000+0  11484-3 0  9991",
        "tle_line2": "2 40310  98.1233 131.4673 0015209  97.6101 262.6836 14.76203620598211"
      },
      "geometry": {
        "type": "Point",
        "coordinates": [
          -46.27521013790186,
          13.423574029487108
        ]
      }
    },
    {
      "type": "Feature",
      "properties": {
        "norad_id": 40336,
        "name": "CBERS 4",
        "group": "resource",
        "lat": 39.269780183153976,
        "lon": 51.26551449879242,
        "alt_km": 769.5750907294769,
        "timestamp": "2025-12-26T14:28:47.346296+00:00",
        "meta_object_name": "CBERS 4",
        "meta_object_id": "2014-079A",
        "meta_epoch": "2025-12-26T07:36:13.879584",
        "meta_mean_motion": 14.35522988,
        "meta_eccentricity": 0.00018945,
        "meta_inclination": 98.3285,
        "meta_ra_of_asc_node": 57.8677,
        "meta_arg_of_pericenter": 97.901,
        "meta_mean_anomaly": 262.2392,
        "meta_ephemeris_type": 0,
        "meta_classification_type": "U",
        "meta_norad_cat_id": 40336,
        "meta_element_set_no": 999,
        "meta_rev_at_epoch": 57915,
        "meta_bstar": 7.1700222e-05,
        "meta_mean_motion_dot": 1.64e-06,
        "meta_mean_motion_ddot": 0,
        "tle_line1": "1 40336U 14079A   25360.31682731  .00000164  00000+0  71700-4 0  9993",
        "tle_line2": "2 40336  98.3285  57.8677 0001894  97.9010 262.2392 14.35522988579151"
      },
      "geometry": {
        "type": "Point",
        "coordinates": [
          51.26551449879242,
          39.269780183153976
        ]
      }
    },
    {
      "type": "Feature",
      "properties": {
        "norad_id": 40362,
        "name": "YAOGAN-26",
        "group": "resource",
        "lat": 43.04041502329144,
        "lon": -172.56266395916154,
        "alt_km": 445.7477755680193,
        "timestamp": "2025-12-26T14:28:47.346306+00:00",
        "meta_object_name": "YAOGAN-26",
        "meta_object_id": "2014-088A",
        "meta_epoch": "2025-12-26T06:05:27.030912",
        "meta_mean_motion": 15.39786114,
        "meta_eccentricity": 0.00042628,
        "meta_inclination": 97.065,
        "meta_ra_of_asc_node": 0.4491,
        "meta_arg_of_pericenter": 346.8747,
        "meta_mean_anomaly": 13.2388,
        "meta_ephemeris_type": 0,
        "meta_classification_type": "U",
        "meta_norad_cat_id": 40362,
        "meta_element_set_no": 999,
        "meta_rev_at_epoch": 61102,
        "meta_bstar": 0.00071679752,
        "meta_mean_motion_dot": 0.00028395,
        "meta_mean_motion_ddot": 0,
        "tle_line1": "1 40362U 14088A   25360.25378508  .00028395  00000+0  71680-3 0  9991",
        "tle_line2": "2 40362  97.0650   0.4491 0004262 346.8747  13.2388 15.39786114611025"
      },
      "geometry": {
        "type": "Point",
        "coordinates": [
          -172.56266395916154,
          43.04041502329144
        ]
      }
    }
  ]
}